{
  "type": "FeatureCollection",
  "features": [
    {
      "type": "Feature",
      "properties": {
        "norad_id": 59626,
        "name": "LEGION 2",
        "group": "resource",
        "lat": 22.471054447814133,
        "lon": 56.39880139101137,
        "alt_km": 515.646125766496,
        "timestamp": "2025-12-10T18:56:59.719857+00:00",
        "meta_object_name": "LEGION 2",
        "meta_object_id": "2024-081B",
        "meta_epoch": "2025-12-10T10:55:55.416864",
        "meta_mean_motion": 15.16454493,
        "meta_eccentricity": 0.0005787,
        "meta_inclination": 97.5213,
        "meta_ra_of_asc_node": 59.2003,
        "meta_arg_of_pericenter": 303.4755,
        "meta_mean_anomaly": 56.5924,
        "meta_ephemeris_type": 0,
        "meta_classification_type": "U",
        "meta_norad_cat_id": 59626,
        "meta_element_set_no": 999,
        "meta_rev_at_epoch": 8893,
        "meta_bstar": 0.00036836,
        "meta_mean_motion_dot": 7.104e-05,
        "meta_mean_motion_ddot": 0,
        "tle_line1": "1 59626U 24081B   25344.45550251  .00007104  00000+0  36836-3 0  9998",
        "tle_line2": "2 59626  97.5213  59.2003 0005787 303.4755  56.5924 15.16454493 88931"
      },
      "geometry": {
        "type": "Point",
        "coordinates": [
          56.39880139101137,
          22.471054447814133
        ]
      }
    },
    {
      "type": "Feature",
      "properties": {
        "norad_id": 60182,
        "name": "ALOS-4 (DAICHI-4)",
        "group": "resource",
        "lat": -59.856855854812835,
        "lon": 93.53978584363517,
        "alt_km": 639.0643422800067,
        "timestamp": "2025-12-10T18:56:59.719866+00:00",
        "meta_object_name": "ALOS-4 (DAICHI-4)",
        "meta_object_id": "2024-123A",
        "meta_epoch": "2025-12-10T12:43:54.253920",
        "meta_mean_motion": 14.79476033,
        "meta_eccentricity": 0.0001422,
        "meta_inclination": 97.9225,
        "meta_ra_of_asc_node": 79.409,
        "meta_arg_of_pericenter": 101.2731,
        "meta_mean_anomaly": 258.864,
        "meta_ephemeris_type": 0,
        "meta_classification_type": "U",
        "meta_norad_cat_id": 60182,
        "meta_element_set_no": 999,
        "meta_rev_at_epoch": 7798,
        "meta_bstar": 0.00038723,
        "meta_mean_motion_dot": 2.842e-05,
        "meta_mean_motion_ddot": 0,
        "tle_line1": "1 60182U 24123A   25344.53048905  .00002842  00000+0  38723-3 0  9992",
        "tle_line2": "2 60182  97.9225  79.4090 0001422 101.2731 258.8640 14.79476033 77984"
      },
      "geometry": {
        "type": "Point",
        "coordinates": [
          93.53978584363517,
          -59.856855854812835
        ]
      }
    },
    {
      "type": "Feature",
      "properties": {
        "norad_id": 60452,
        "name": "LEGION 3",
        "group": "resource",
        "lat": 36.92384182705878,
        "lon": 9.344928278540586,
        "alt_km": 519.6087335440216,
        "timestamp": "2025-12-10T18:56:59.719877+00:00",
        "meta_object_name": "LEGION 3",
        "meta_object_id": "2024-146A",
        "meta_epoch": "2025-12-10T10:47:06.031104",
        "meta_mean_motion": 15.15723031,
        "meta_eccentricity": 0.0014643,
        "meta_inclination": 45.0022,
        "meta_ra_of_asc_node": 322.4111,
        "meta_arg_of_pericenter": 186.3263,
        "meta_mean_anomaly": 173.7433,
        "meta_ephemeris_type": 0,
        "meta_classification_type": "U",
        "meta_norad_cat_id": 60452,
        "meta_element_set_no": 999,
        "meta_rev_at_epoch": 7338,
        "meta_bstar": 0.00041865,
        "meta_mean_motion_dot": 7.877e-05,
        "meta_mean_motion_ddot": 0,
        "tle_line1": "1 60452U 24146A   25344.44937536  .00007877  00000+0  41865-3 0  9998",
        "tle_line2": "2 60452  45.0022 322.4111 0014643 186.3263 173.7433 15.15723031 73380"
      },
      "geometry": {
        "type": "Point",
        "coordinates": [
          9.344928278540586,
          36.92384182705878
        ]
      }
    },
    {
      "type": "Feature",
      "properties": {
        "norad_id": 60453,
        "name": "LEGION 4",
        "group": "resource",
        "lat": 35.30852448230429,
        "lon": 97.38732425293006,
        "alt_km": 515.8677229489895,
        "timestamp": "2025-12-10T18:56:59.719887+00:00",
        "meta_object_name": "LEGION 4",
        "meta_object_id": "2024-146B",
        "meta_epoch": "2025-12-10T10:48:03.271104",
        "meta_mean_motion": 15.15785732,
        "meta_eccentricity": 0.0009683,
        "meta_inclination": 45.0386,
        "meta_ra_of_asc_node": 54.1511,
        "meta_arg_of_pericenter": 299.2634,
        "meta_mean_anomaly": 60.7277,
        "meta_ephemeris_type": 0,
        "meta_classification_type": "U",
        "meta_norad_cat_id": 60453,
        "meta_element_set_no": 999,
        "meta_rev_at_epoch": 7223,
        "meta_bstar": 0.00041941,
        "meta_mean_motion_dot": 7.895e-05,
        "meta_mean_motion_ddot": 0,
        "tle_line1": "1 60453U 24146B   25344.45003786  .00007895  00000+0  41941-3 0  9996",
        "tle_line2": "2 60453  45.0386  54.1511 0009683 299.2634  60.7277 15.15785732 72231"
      },
      "geometry": {
        "type": "Point",
        "coordinates": [
          97.38732425293006,
          35.30852448230429
        ]
      }
    },
    {
      "type": "Feature",
      "properties": {
        "norad_id": 60989,
        "name": "SENTINEL-2C",
        "group": "resource",
        "lat": 43.41444700037859,
        "lon": 49.09913898524994,
        "alt_km": 784.8270411382873,
        "timestamp": "2025-12-10T18:56:59.719899+00:00",
        "meta_object_name": "SENTINEL-2C",
        "meta_object_id": "2024-157A",
        "meta_epoch": "2025-12-10T12:01:53.596992",
        "meta_mean_motion": 14.30816245,
        "meta_eccentricity": 0.0001201,
        "meta_inclination": 98.5684,
        "meta_ra_of_asc_node": 57.0161,
        "meta_arg_of_pericenter": 97.8387,
        "meta_mean_anomaly": 262.2932,
        "meta_ephemeris_type": 0,
        "meta_classification_type": "U",
        "meta_norad_cat_id": 60989,
        "meta_element_set_no": 999,
        "meta_rev_at_epoch": 6600,
        "meta_bstar": 0.00011211,
        "meta_mean_motion_dot": 2.5e-06,
        "meta_mean_motion_ddot": 0,
        "tle_line1": "1 60989U 24157A   25344.50131478  .00000250  00000+0  11211-3 0  9993",
        "tle_line2": "2 60989  98.5684  57.0161 0001201  97.8387 262.2932 14.30816245 66002"
      },
      "geometry": {
        "type": "Point",
        "coordinates": [
          49.09913898524994,
          43.41444700037859
        ]
      }
    },
    {
      "type": "Feature",
      "properties": {
        "norad_id": 61735,
        "name": "IONOSFERA-M 1",
        "group": "resource",
        "lat": 7.07712139387216,
        "lon": -146.4418065553198,
        "alt_km": 817.4099767611615,
        "timestamp": "2025-12-10T18:56:59.719910+00:00",
        "meta_object_name": "IONOSFERA-M 1",
        "meta_object_id": "2024-199A",
        "meta_epoch": "2025-12-10T13:51:09.925344",
        "meta_mean_motion": 14.22713337,
        "meta_eccentricity": 0.000106,
        "meta_inclination": 98.7411,
        "meta_ra_of_asc_node": 214.442,
        "meta_arg_of_pericenter": 24.7673,
        "meta_mean_anomaly": 335.3556,
        "meta_ephemeris_type": 0,
        "meta_classification_type": "U",
        "meta_norad_cat_id": 61735,
        "meta_element_set_no": 999,
        "meta_rev_at_epoch": 10088,
        "meta_bstar": 7.622e-05,
        "meta_mean_motion_dot": 1.26e-06,
        "meta_mean_motion_ddot": 0,
        "tle_line1": "1 61735U 24199A   25344.57719821  .00000126  00000+0  76220-4 0  9994",
        "tle_line2": "2 61735  98.7411 214.4420 0001060  24.7673 335.3556 14.22713337100887"
      },
      "geometry": {
        "type": "Point",
        "coordinates": [
          -146.4418065553198,
          7.07712139387216
        ]
      }
    },
    {
      "type": "Feature",
      "properties": {
        "norad_id": 61736,
        "name": "IONOSFERA-M 2",
        "group": "resource",
        "lat": -9.945626093866705,
        "lon": 33.01937112783411,
        "alt_km": 820.0461350451224,
        "timestamp": "2025-12-10T18:56:59.719919+00:00",
        "meta_object_name": "IONOSFERA-M 2",
        "meta_object_id": "2024-199B",
        "meta_epoch": "2025-12-10T12:59:47.287392",
        "meta_mean_motion": 14.22715491,
        "meta_eccentricity": 0.000159,
        "meta_inclination": 98.7403,
        "meta_ra_of_asc_node": 214.3191,
        "meta_arg_of_pericenter": 113.568,
        "meta_mean_anomaly": 246.5665,
        "meta_ephemeris_type": 0,
        "meta_classification_type": "U",
        "meta_norad_cat_id": 61736,
        "meta_element_set_no": 999,
        "meta_rev_at_epoch": 10400,
        "meta_bstar": 7.271e-05,
        "meta_mean_motion_dot": 1.19e-06,
        "meta_mean_motion_ddot": 0,
        "tle_line1": "1 61736U 24199B   25344.54151953  .00000119  00000+0  72710-4 0  9990",
        "tle_line2": "2 61736  98.7403 214.3191 0001590 113.5680 246.5665 14.22715491104001"
      },
      "geometry": {
        "type": "Point",
        "coordinates": [
          33.01937112783411,
          -9.945626093866705
        ]
      }
    }
  ]
}